CCSDS_OMM_VERS = 2.0
CREATION_DATE  = 
ORIGINATOR     = 

OBJECT_NAME    = SOYUZ-MS 28
OBJECT_ID      = 2025-275A
CENTER_NAME    = EARTH
REF_FRAME      = TEME
TIME_SYSTEM    = UTC
MEAN_ELEMENT_THEORY = SGP/SGP4

EPOCH          = 2026-01-12T22:49:23.132352
MEAN_MOTION    = 15.49263082
ECCENTRICITY   = .00077162
INCLINATION    = 51.6330
RA_OF_ASC_NODE = 347.9568
ARG_OF_PERICENTER = 11.8640
MEAN_ANOMALY   = 348.2529

EPHEMERIS_TYPE = 0
CLASSIFICATION_TYPE = U
NORAD_CAT_ID   = 66664
ELEMENT_SET_NO = 999
REV_AT_EPOCH   = 128
BSTAR          = .14124674E-3
MEAN_MOTION_DOT = .7414E-4
MEAN_MOTION_DDOT = 0

CCSDS_OMM_VERS = 2.0
CREATION_DATE  = 
ORIGINATOR     = 

OBJECT_NAME    = 1998-067XS
OBJECT_ID      = 1998-067XS
CENTER_NAME    = EARTH
REF_FRAME      = TEME
TIME_SYSTEM    = UTC
MEAN_ELEMENT_THEORY = SGP/SGP4

EPOCH          = 2026-01-12T12:26:46.517280
MEAN_MOTION    = 15.52386309
ECCENTRICITY   = .00022804
INCLINATION    = 51.6320
RA_OF_ASC_NODE = 349.5718
ARG_OF_PERICENTER = 3.6638
MEAN_ANOMALY   = 356.4368

EPHEMERIS_TYPE = 0
CLASSIFICATION_TYPE = U
NORAD_CAT_ID   = 66906
ELEMENT_SET_NO = 999
REV_AT_EPOCH   = 639
BSTAR          = .39667211E-3
MEAN_MOTION_DOT = .24258E-3
MEAN_MOTION_DDOT = 0

CCSDS_OMM_VERS = 2.0
CREATION_DATE  = 
ORIGINATOR     = 

OBJECT_NAME    = 1998-067XT
OBJECT_ID      = 1998-067XT
CENTER_NAME    = EARTH
REF_FRAME      = TEME
TIME_SYSTEM    = UTC
MEAN_ELEMENT_THEORY = SGP/SGP4

EPOCH          = 2026-01-12T05:11:30.917184
MEAN_MOTION    = 15.56060214
ECCENTRICITY   = .00036276
INCLINATION    = 51.6316
RA_OF_ASC_NODE = 350.5534
ARG_OF_PERICENTER = 47.4455
MEAN_ANOMALY   = 312.6842

EPHEMERIS_TYPE = 0
CLASSIFICATION_TYPE = U
NORAD_CAT_ID   = 66907
ELEMENT_SET_NO = 999
REV_AT_EPOCH   = 635
BSTAR          = .1072615E-2
MEAN_MOTION_DOT = .76487E-3
MEAN_MOTION_DDOT = 0

CCSDS_OMM_VERS = 2.0
CREATION_DATE  = 
ORIGINATOR     = 

OBJECT_NAME    = 1998-067XU
OBJECT_ID      = 1998-067XU
CENTER_NAME    = EARTH
REF_FRAME      = TEME
TIME_SYSTEM    = UTC
MEAN_ELEMENT_THEORY = SGP/SGP4

EPOCH          = 2026-01-12T22:07:23.221920
MEAN_MOTION    = 15.56111866
ECCENTRICITY   = .00036797
INCLINATION    = 51.6303
RA_OF_ASC_NODE = 347.0132
ARG_OF_PERICENTER = 46.3724
MEAN_ANOMALY   = 313.7573

EPHEMERIS_TYPE = 0
CLASSIFICATION_TYPE = U
NORAD_CAT_ID   = 66908
ELEMENT_SET_NO = 999
REV_AT_EPOCH   = 646
BSTAR          = .74103439E-3
MEAN_MOTION_DOT = .52633E-3
MEAN_MOTION_DDOT = 0

CCSDS_OMM_VERS = 2.0
CREATION_DATE  = 
ORIGINATOR     = 

OBJECT_NAME    = SILVERSAT
OBJECT_ID      = 1998-067XV
CENTER_NAME    = EARTH
REF_FRAME      = TEME
TIME_SYSTEM    = UTC
MEAN_ELEMENT_THEORY = SGP/SGP4

EPOCH          = 2026-01-12T15:46:37.691616
MEAN_MOTION    = 15.56776123
ECCENTRICITY   = .0003892
INCLINATION    = 51.6313
RA_OF_ASC_NODE = 348.2481
ARG_OF_PERICENTER = 56.1557
MEAN_ANOMALY   = 303.9805

EPHEMERIS_TYPE = 0
CLASSIFICATION_TYPE = U
NORAD_CAT_ID   = 66909
ELEMENT_SET_NO = 999
REV_AT_EPOCH   = 642
BSTAR          = .10943362E-2
MEAN_MOTION_DOT = .80198E-3
MEAN_MOTION_DDOT = 0

CCSDS_OMM_VERS = 2.0
CREATION_DATE  = 
ORIGINATOR     = 

OBJECT_NAME    = 1998-067XW
OBJECT_ID      = 1998-067XW
CENTER_NAME    = EARTH
REF_FRAME      = TEME
TIME_SYSTEM    = UTC
MEAN_ELEMENT_THEORY = SGP/SGP4

EPOCH          = 2026-01-12T21:57:53.440704
MEAN_MOTION    = 15.56449077
ECCENTRICITY   = .00027185
INCLINATION    = 51.6295
RA_OF_ASC_NODE = 346.9683
ARG_OF_PERICENTER = 31.1237
MEAN_ANOMALY   = 328.9915

EPHEMERIS_TYPE = 0
CLASSIFICATION_TYPE = U
NORAD_CAT_ID   = 66910
ELEMENT_SET_NO = 999
REV_AT_EPOCH   = 646
BSTAR          = .75331939E-3
MEAN_MOTION_DOT = .54197E-3
MEAN_MOTION_DDOT = 0

CCSDS_OMM_VERS = 2.0
CREATION_DATE  = 
ORIGINATOR     = 

OBJECT_NAME    = 1998-067XX
OBJECT_ID      = 1998-067XX
CENTER_NAME    = EARTH
REF_FRAME      = TEME
TIME_SYSTEM    = UTC
MEAN_ELEMENT_THEORY = SGP/SGP4

EPOCH          = 2026-01-12T07:46:27.738624
MEAN_MOTION    = 15.57465271
ECCENTRICITY   = .00027537
INCLINATION    = 51.6299
RA_OF_ASC_NODE = 349.7701
ARG_OF_PERICENTER = 46.9924
MEAN_ANOMALY   = 313.1299

EPHEMERIS_TYPE = 0
CLASSIFICATION_TYPE = U
NORAD_CAT_ID   = 66911
ELEMENT_SET_NO = 999
REV_AT_EPOCH   = 636
BSTAR          = .12375769E-2
MEAN_MOTION_DOT = .93276E-3
MEAN_MOTION_DDOT = 0

CCSDS_OMM_VERS = 2.0
CREATION_DATE  = 
ORIGINATOR     = 

OBJECT_NAME    = 1998-067XY
OBJECT_ID      = 1998-067XY
CENTER_NAME    = EARTH
REF_FRAME      = TEME
TIME_SYSTEM    = UTC
MEAN_ELEMENT_THEORY = SGP/SGP4

EPOCH          = 2026-01-12T22:33:12.592512
MEAN_MOTION    = 15.54763163
ECCENTRICITY   = .00035423
INCLINATION    = 51.6312
RA_OF_ASC_NODE = 347.1338
ARG_OF_PERICENTER = 33.5233
MEAN_ANOMALY   = 326.5982

EPHEMERIS_TYPE = 0
CLASSIFICATION_TYPE = U
NORAD_CAT_ID   = 66912
ELEMENT_SET_NO = 999
REV_AT_EPOCH   = 645
BSTAR          = .59680314E-3
MEAN_MOTION_DOT = .40162E-3
MEAN_MOTION_DDOT = 0

