SOYUZ-MS 28             
1 66664U 25275A   26012.95096218  .00007414  00000+0  14125-3 0  9991
2 66664  51.6330 347.9568 0007716  11.8640 348.2529 15.49263082  1285
1998-067XS              
1 66906U 98067XS  26012.51859395  .00024258  00000+0  39667-3 0  9997
2 66906  51.6320 349.5718 0002280   3.6638 356.4368 15.52386309  6396
1998-067XT              
1 66907U 98067XT  26012.21633006  .00076487  00000+0  10726-2 0  9999
2 66907  51.6316 350.5534 0003627  47.4455 312.6842 15.56060214  6354
1998-067XU              
1 66908U 98067XU  26012.92179655  .00052633  00000+0  74103-3 0  9990
2 66908  51.6303 347.0132 0003679  46.3724 313.7573 15.56111866  6465
SILVERSAT               
1 66909U 98067XV  26012.65738069  .00080198  00000+0  10943-2 0  9999
2 66909  51.6313 348.2481 0003892  56.1557 303.9805 15.56776123  6425
1998-067XW              
1 66910U 98067XW  26012.91520186  .00054197  00000+0  75332-3 0  9993
2 66910  51.6295 346.9683 0002718  31.1237 328.9915 15.56449077  6467
1998-067XX              
1 66911U 98067XX  26012.32393216  .00093276  00000+0  12376-2 0  9990
2 66911  51.6299 349.7701 0002753  46.9924 313.1299 15.57465271  6365
1998-067XY              
1 66912U 98067XY  26012.93972908  .00040162  00000+0  59680-3 0  9995
2 66912  51.6312 347.1338 0003542  33.5233 326.5982 15.54763163  6457
